BEIDOU 3 (C01)          
1 36287U 10001A   22162.79308932 -.00000267  00000+0  00000+0 0  9996
2 36287   1.8747  47.5760 0004286  22.3953 256.1111  1.00270474 45458
BEIDOU 5 (C06)          
1 36828U 10036A   22162.86337528 -.00000014  00000+0  00000+0 0  9996
2 36828  54.1930 176.2804 0027930 192.3637 306.8135  1.00247810 43524
BEIDOU 6 (C04)          
1 37210U 10057A   22162.79701414 -.00000097  00000+0  00000+0 0  9997
2 37210   0.8423  47.1861 0002824 129.7120 170.1777  1.00271782 42573
BEIDOU 7 (C07)          
1 37256U 10068A   22162.93869697 -.00000219  00000+0  00000+0 0  9999
2 37256  50.2221 289.7140 0021414 184.3327 229.6762  1.00251526 42099
BEIDOU 8 (C08)          
1 37384U 11013A   22162.70446351 -.00000206  00000+0  00000+0 0  9991
2 37384  60.2822  54.3161 0017843 186.1254  19.6076  1.00257816 40965
BEIDOU 9 (C09)          
1 37763U 11038A   22162.86995398  .00000020  00000+0  00000+0 0  9999
2 37763  54.4754 178.7699 0098129 228.0564 261.8322  1.00280574 39946
BEIDOU 10 (C10)         
1 37948U 11073A   22162.67750692 -.00000168  00000+0  00000+0 0  9992
2 37948  50.3400 289.3567 0083240 217.9001  89.3967  1.00295327 38699
BEIDOU 11 (C05)         
1 38091U 12008A   22162.90466086  .00000071  00000+0  00000+0 0  9990
2 38091   1.5512  67.4304 0014763 337.5372 239.5955  1.00270798 37778
BEIDOU 12 (C11)         
1 38250U 12018A   22162.72201778 -.00000063  00000+0  00000+0 0  9995
2 38250  56.7017 353.7485 0020096 252.7211  75.2462  1.86234356 68972
BEIDOU 13 (C12)         
1 38251U 12018B   22162.70094025 -.00000063  00000+0  00000+0 0  9999
2 38251  56.6126 353.0744 0010937 256.2001 101.8572  1.86234418 68970
BEIDOU 15 (C14)         
1 38775U 12050B   22162.61620558  .00000017  00000+0  00000+0 0  9990
2 38775  55.3974 111.8805 0015447 322.2335 175.2993  1.86231396 66355
BEIDOU 16 (C02)         
1 38953U 12059A   22161.56204122 -.00000160  00000+0  00000+0 0  9995
2 38953   1.9714  84.3747 0012051 302.1362 158.7149  1.00274185 35338
BEIDOU 17 (C31)         
1 40549U 15019A   22162.88539281 -.00000175  00000+0  00000+0 0  9997
2 40549  51.8958 312.8198 0036214 192.7739 164.8721  1.00298175 26376
BEIDOU 18 (C57)         
1 40748U 15037A   22162.77365443 -.00000065  00000+0  00000+0 0  9991
2 40748  55.8647 351.9430 0005208  40.5711 275.6557  1.86233375 46801
BEIDOU 19 (C58)         
1 40749U 15037B   22162.73512309 -.00000065  00000+0  00000+0 0  9993
2 40749  55.8703 351.9325 0004342 358.9875  65.9547  1.86232220 46800
BEIDOU 20 (C18)         
1 40938U 15053A   22162.65666583 -.00000152  00000+0  00000+0 0  9993
2 40938  51.5100 275.9423 0044515 196.3999 117.6003  1.00293452 24645
BEIDOU IGSO-6 (C13)     
1 41434U 16021A   22162.69259462 -.00000182  00000+0  00000+0 0  9992
2 41434  58.0907  52.8969 0043662 218.2633 333.8175  1.00284609 22770
BEIDOU-2 G7 (C03)       
1 41586U 16037A   22162.85893475 -.00000341  00000+0  00000+0 0  9990
2 41586   1.9673  69.8136 0008716   4.8964 245.2275  1.00272522 22088
BEIDOU-3 M1 (C19)       
1 43001U 17069A   22162.69167363  .00000016  00000+0  00000+0 0  9990
2 43001  55.5502 111.8786 0012064 294.3381  50.0518  1.86231782 31288
BEIDOU-3 M2 (C20)       
1 43002U 17069B   22162.81047422  .00000015  00000+0  00000+0 0  9997
2 43002  55.5515 111.9099 0010319 312.9143 154.1654  1.86231411 31281
BEIDOU-3 M3 (C27)       
1 43107U 18003A   22162.68184933 -.00000067  00000+0  00000+0 0  9994
2 43107  55.3178 352.8642 0005845  58.8818 128.0794  1.86232572 30040
BEIDOU-3 M4 (C28)       
1 43108U 18003B   22162.78768799 -.00000067  00000+0  00000+0 0  9994
2 43108  55.3106 352.8496 0001598 254.8359  47.0092  1.86231014 30049
BEIDOU-3 M5 (C21)       
1 43207U 18018A   22162.24565106  .00000021  00000+0  00000+0 0  9997
2 43207  55.5121 112.0080 0007556 331.2831  28.6387  1.86231718 29421
BEIDOU-3 M6 (C22)       
1 43208U 18018B   22161.77533587  .00000025  00000+0  00000+0 0  9997
2 43208  55.5090 112.0281 0010009 305.6783  54.1920  1.86231654 29413
BEIDOU-3 M7 (C29)       
1 43245U 18029A   22161.99491565 -.00000064  00000+0  00000+0 0  9997
2 43245  55.2322 350.6566 0001369  61.8344 294.9843  1.86232688 28569
BEIDOU-3 M8 (C30)       
1 43246U 18029B   22162.46355757 -.00000066  00000+0  10000-3 0  9990
2 43246  55.2278 350.6708 0004625  14.2296 343.3155  1.86232891 28565
BEIDOU IGSO-7 (C16)     
1 43539U 18057A   22162.85642159 -.00000025  00000+0  00000+0 0  9994
2 43539  55.0756 175.7537 0049389 227.5819 275.6403  1.00260004 14450
BEIDOU-3 M9 (C23)       
1 43581U 18062A   22162.69794250  .00000058  00000+0  00000+0 0  9994
2 43581  54.2754 232.2804 0004220 266.9779  98.7209  1.86231993 26325
BEIDOU-3 M10 (C24)      
1 43582U 18062B   22162.57822182  .00000057  00000+0  00000+0 0  9997
2 43582  54.2755 232.2772 0004276 352.7911  24.4013  1.86232236 26324
BEIDOU-3 M11 (C25)      
1 43602U 18067A   22162.53741861  .00000060  00000+0  00000+0 0  9999
2 43602  54.3588 230.8906 0006555   5.0466  26.2283  1.86231797 25813
BEIDOU-3 M12 (C26)      
1 43603U 18067B   22162.74894947  .00000062  00000+0  00000+0 0  9999
2 43603  54.3552 230.8503 0003871 350.3481  93.1235  1.86231728 25835
BEIDOU-3 M13 (C32)      
1 43622U 18072A   22162.86299461  .00000014  00000+0  00000+0 0  9996
2 43622  55.4757 111.5429 0008570 291.9627 257.2617  1.86231844 25342
BEIDOU-3 M14 (C33)      
1 43623U 18072B   22162.62851916  .00000016  00000+0  00000+0 0  9992
2 43623  55.4783 111.5416 0006674 311.3603 170.8950  1.86231822 25348
BEIDOU-3 M15 (C34)      
1 43647U 18078A   22162.59739889 -.00000066  00000+0  10000-3 0  9995
2 43647  55.1260 350.7968 0006836  15.1903 341.7456  1.86232958 24847
BEIDOU-3 M16 (C35)      
1 43648U 18078B   22162.72464046 -.00000067  00000+0  00000+0 0  9997
2 43648  55.1228 350.7977 0005134  28.9233 321.1257  1.86232389 24861
BEIDOU-3 G1 (C59)       
1 43683U 18085A   22162.86477837 -.00000262  00000+0  00000+0 0  9998
2 43683   0.8835 166.8265 0003373 331.7403 213.0086  1.00272561 13357
BEIDOU-3 M17 (C36)      
1 43706U 18093A   22161.81703305  .00000050  00000+0  00000+0 0  9993
2 43706  54.3587 232.1975 0010246 271.3188  88.6407  1.86231825 24191
BEIDOU-3 M18 (C37)      
1 43707U 18093B   22162.91168093  .00000060  00000+0  00000+0 0  9996
2 43707  54.3594 232.1526 0008348 295.4415 169.6424  1.86232353 24222
BEIDOU-3 IGSO-1 (C38)   
1 44204U 19023A   22162.92428263 -.00000240  00000+0  00000+0 0  9993
2 44204  56.5515  53.0282 0018986 200.1227  97.5639  1.00259738 11656
BEIDOU-2 G8             
1 44231U 19027A   22162.79396150 -.00000232  00000+0  00000+0 0  9992
2 44231   0.8474  76.2735 0004159 107.8358 146.2758  1.00276000 11360
BEIDOU-3 IGSO-2 (C39)   
1 44337U 19035A   22162.84894936 -.00000033  00000+0  00000+0 0  9998
2 44337  55.1191 171.7721 0023325 199.3292 311.7036  1.00254480 10995
BEIDOU-3 M23 (C45)      
1 44542U 19061A   22162.28984605  .00000055  00000+0  00000+0 0  9999
2 44542  54.5849 232.3217 0007722 328.5406  31.4924  1.86231197 18473
BEIDOU-3 M24 (C46)      
1 44543U 19061B   22162.76352287  .00000059  00000+0  00000+0 0  9992
2 44543  54.5833 232.2747 0005070 315.2680 273.6465  1.86231727 18474
BEIDOU-3 IGSO-3         
1 44709U 19073A   22162.77797156 -.00000214  00000+0  00000+0 0  9992
2 44709  57.2767 296.4432 0023004 174.4364 187.0472  1.00258551  9755
BEIDOU-3 M21            
1 44793U 19078A   22161.86364633 -.00000065  00000+0  10000-3 0  9998
2 44793  54.9746 350.8431 0007018  20.4820 158.4038  1.86232312 17320
BEIDOU-3 M22            
1 44794U 19078B   22162.79823520 -.00000068  00000+0  00000+0 0  9995
2 44794  54.9504 350.8017 0004928  20.6470 336.4949  1.86232842 17331
BEIDOU-3 M19            
1 44864U 19090A   22162.69355491  .00000016  00000+0  00000+0 0  9995
2 44864  55.4112 111.7594 0018497 274.0224 207.3951  1.86231939 16921
BEIDOU-3 M20            
1 44865U 19090B   22162.58181903  .00000017  00000+0  00000+0 0  9990
2 44865  55.4136 111.7941 0016881 287.1950 209.1805  1.86231944 16890
BEIDOU-3 G2             
1 45344U 20017A   22162.85282948 -.00000128  00000+0  00000+0 0  9999
2 45344   2.0703 351.7615 0004959 109.7673 185.7221  1.00271215  8555
BEIDOU-3 G3             
1 45807U 20040A   22162.85893475 -.00000339  00000+0  00000+0 0  9996
2 45807   1.4549 303.1057 0006043 334.4387  42.3575  1.00276315  7371
